# Made by eph2tle, compiled Sep 29 2021 12:55:10
# Run at Thu Sep 30 21:43:32 2021
#
#    The following TLEs (Two-Line Elements) were generated by fitting
# a numerically-integrated ephemeris,  based on the orbit given below,
# to the SDP4/SGP4 models.  Each TLE is good for the interval between
# its epoch and the epoch of the subsequent TLE (usually one day).
# The maximum deviation between the numerically integrated ephemerides
# and the TLE-based ephemeris, in kilometers,  is given for each TLE
# as the "worst residual".
#
#    This fitting is done using the 'eph2tle' code packaged with Find_Orb.
# The code has details on how the TLEs were computed :
#
#    https://github.com/Bill-Gray/find_orb/eph2tle.cpp
#
#    Be warned:  the error given is that between the numerically
# integrated ephems and the TLE model.  There will usually be at
# least some additional difference between the ephems and the actual
# motion of the satellite,  especially if the ephemerides are based
# on a short arc.  If the following orbital elements say something
# like "[based on] 10 observations 2015 Jan. 1-13",  and the TLEs
# are for 2015 May,  the extrapolation may be tenuous at best.  If
# your application requires a specific level of accuracy,  you may
# want to contact me;  I can give you some idea as to the fit of the
# underlying data (and possibly TLEs based on newer data).
#
#   You can usually find the underlying observational data,  and the
# fitted orbit,  residuals,  ephemerides,  and sometimes some comments
# about the object,  among the pages listed at
#
#    https://www.projectpluto.com/pluto/mpecs/pseudo.htm
#
#    WARNING:  for this object,  "normal" TLEs cannot be fitted.  (This
# usually means an object with an hyperbolic or nearly-parabolic orbit.)
# For this and similar cases,   an alternative model is used,  in which
# most of the traditional TLE data is replaced by six signed 8-digit hex
# numbers.  These six numbers are a state vector,  numerically integrated
# using a simplified force model.  This is necessary for objects at L2 or
# L1,  and sometimes for objects in high orbits where the SDP4/SGP4 model
# fails.  I'll be posting source code for this.  But be aware:  it's my
# own extension,  doesn't work with other code,  and is therefore used
# only when necessary.
#
#    Also,  if you use a TLE outside the "correct" time range (between
# its MJD and that of the next TLE),  all bets are off.  I've carefully
# computed and minimized the worst error over the "correct" time frame,
# but the ephemeris may (or may not) diverge wildly outside of it.
#
# Ephem range: 59468.000000 59580.000000 1.000000
# Created Thu Sep 30 21:43:23 2021
# Ephemeris start: 11 Sep 2021  0:00:00
# Ephemeris end:    1 Jan 2022  0:00:00
# Times are all TDT
# Positions/velocities are in ecliptic J2000
# Orbital elements:  Unk_Cislunar
#    Perigee 2021 Sep 12.00771 +/- 0.000175 TT =  0:11:05 (JD 2459469.50771)
# Epoch 2021 Sep 22.0 TT = JDT 2459479.5                        Find_Orb
# M 167.55323271 +/- 0.024            (J2000 equator)
# n  16.76824627 +/- 0.00241          Peri.  203.41108 +/- 0.020
# a326295.995 +/- 31.3                Node    26.79116 +/- 0.00042
# e   0.1389850 +/- 6.16e-5           Incl.   31.88902 +/- 0.00007
# P  21.47d                  H 56.7   G  0.15   U  8.7
# q 280945.714 +/- 47    Q 371646.276 +/- 15.7
# 36 of 85 observations 2021 Sept. 18-22; mean residual 0".478
#
# 1 NoradU COSPAR   Epoch.epoch     dn/dt/2  d2n/dt2/6 BSTAR    T El# C
# 2 NoradU Inclina RAAscNode Eccent  ArgPeri MeanAno  MeanMotion Rev# C

# Worst residual: 277.81 km
# MJD 59468.000000 (2021 Sep 11  0:00)
Unk_Cislunar
1 99999U 00000    21253.99919926 -005FBG6T -003NU514 -001PE19EH 13702
2 99999                          +0005V8O3 -0005M3AG -0000XTL3     06

# Worst residual: 2361.41 km
# MJD 59469.000000 (2021 Sep 12  0:00)
Unk_Cislunar
1 99999U 00000    21254.99919926 -003PXW6O -004VJ8MP -001UBJGXH 13700
2 99999                          +0008UGDX -0003UHQV -0000ATO3     03

# Worst residual: 171.80 km
# MJD 59470.000000 (2021 Sep 13  0:00)
Unk_Cislunar
1 99999U 00000    21255.99919926 -001LMMKK -0054EIHA -0025LM4FH 13700
2 99999                          +0007V7IW +0000G1UR -0001V4LF     08

# Worst residual: 39.03 km
# MJD 59471.000000 (2021 Sep 14  0:00)
Unk_Cislunar
1 99999U 00000    21256.99919926 +0006S9UL -004VCS0N -002JHWS0H 13700
2 99999                          +00075WWL +0001OLDQ -00018XC2     02

# Worst residual: 11.95 km
# MJD 59472.000000 (2021 Sep 15  0:00)
Unk_Cislunar
1 99999U 00000    21257.99919926 +001U50DB -004AW0MM -002QC8YWH 13700
2 99999                          +0006IQHB +00031V7N -0000BBYK     05

# Worst residual: 5.29 km
# MJD 59473.000000 (2021 Sep 16  0:00)
Unk_Cislunar
1 99999U 00000    21258.99919926 +003AB7DT -003F32JR -002OTTJRH 13701
2 99999                          +0005HMPV +00049H9J +0000NPFF     04

# Worst residual: 3.05 km
# MJD 59474.000000 (2021 Sep 17  0:00)
Unk_Cislunar
1 99999U 00000    21259.99919926 +004G05ML -002A8ZXM -002F8KKLH 13701
2 99999                          +000445L9 +00054CWG +0001JCG7     06

# Worst residual: 1.84 km
# MJD 59475.000000 (2021 Sep 18  0:00)
Unk_Cislunar
1 99999U 00000    21260.99919926 +0058UZVQ -000ZTTCQ -001YRU16H 13705
2 99999                          +0002JLYA +0005JWAU +00028NKJ     04

# Worst residual: 3.10 km
# MJD 59476.000000 (2021 Sep 19  0:00)
Unk_Cislunar
1 99999U 00000    21261.99919926 +005NU930 +000CHZZW -001D4XXAH 13706
2 99999                          +0000XB4Y +0005KGY9 +0002QBXI     07

# Worst residual: 3.59 km
# MJD 59477.000000 (2021 Sep 20  0:00)
Unk_Cislunar
1 99999U 00000    21262.99919926 +005P1FN8 +001NCI9F -000O77REH 13703
2 99999                          -0000MNON +00057X8H +0003072F     00

# Worst residual: 3.28 km
# MJD 59478.000000 (2021 Sep 21  0:00)
Unk_Cislunar
1 99999U 00000    21263.99919926 +005DDHC4 +002TU22R +00027CJGH 13709
2 99999                          -00021J7F +0004KII6 +00032NLA     03

# Worst residual: 2.47 km
# MJD 59479.000000 (2021 Sep 22  0:00)
Unk_Cislunar
1 99999U 00000    21264.99919926 +004QAKHO +003TM6X3 +000SDBDHH 13702
2 99999                          -00039JXX +0003OD9Y +0002YB3Y     07

# Worst residual: 2.09 km
# MJD 59480.000000 (2021 Sep 23  0:00)
Unk_Cislunar
1 99999U 00000    21265.99919926 +003TLAUU +004KTFNU +001GQEYTH 13705
2 99999                          -00049JGD +0002LA3B +0002NQ3H     01

# Worst residual: 2.30 km
# MJD 59481.000000 (2021 Sep 24  0:00)
Unk_Cislunar
1 99999U 00000    21266.99919926 +002PB96X +0051YAF0 +0021UQQAH 13704
2 99999                          -00050JGK +0001CP5U +00027C39     00

# Worst residual: 2.39 km
# MJD 59482.000000 (2021 Sep 25  0:00)
Unk_Cislunar
1 99999U 00000    21267.99919926 +001FQDQF +0057UJQC +002IDDVFH 13704
2 99999                          -0005HIKY -0000072D +0001LEFG     04

# Worst residual: 2.22 km
# MJD 59483.000000 (2021 Sep 26  0:00)
Unk_Cislunar
1 99999U 00000    21268.99919926 +0003F7AC +0051LGZA +002SYXO8H 13706
2 99999                          -0005MZNP -0001GCZ8 +0000U0GA     03

# Worst residual: 2.15 km
# MJD 59484.000000 (2021 Sep 27  0:00)
Unk_Cislunar
1 99999U 00000    21269.99919926 -0018LF0P +004IJTWS +002WCA8RH 13705
2 99999                          -0005EKBT -0002YJWM -00002TUB     09

# Worst residual: 1.94 km
# MJD 59485.000000 (2021 Sep 28  0:00)
Unk_Cislunar
1 99999U 00000    21270.99919926 -002GJU72 +003MGLXW +002R6T3VH 13709
2 99999                          -0004OCNT -0004GJ5C -00014XLO     08

# Worst residual: 1.27 km
# MJD 59486.000000 (2021 Sep 29  0:00)
Unk_Cislunar
1 99999U 00000    21271.99919926 -003FJ6WR +002DW0OR +002CCZD3H 13701
2 99999                          -0003APYN -0005TEQF -0002B3RR     03

# Worst residual: 0.73 km
# MJD 59487.000000 (2021 Sep 30  0:00)
Unk_Cislunar
1 99999U 00000    21272.99919926 -003Z5ZMS +000V5GE3 +001NA8GOH 13701
2 99999                          -00013LNR -0006QX02 -0003H94A     08

# Worst residual: 0.47 km
# MJD 59488.000000 (2021 Oct  1  0:00)
Unk_Cislunar
1 99999U 00000    21273.99919926 -003W3GKH -000S1P7J +000P10STH 13703
2 99999                          +0001XG2M -0006QYJJ -0004D8ZU     00

# Worst residual: 0.38 km
# MJD 59489.000000 (2021 Oct  2  0:00)
Unk_Cislunar
1 99999U 00000    21274.99919926 -0030V1SF -00293W1N -000E0IPVH 13709
2 99999                          +00059JXD -00059775 -0004I2MF     02

# Worst residual: 0.29 km
# MJD 59490.000000 (2021 Oct  3  0:00)
Unk_Cislunar
1 99999U 00000    21275.99919926 -001FS3RW -0036JJ8B -001DJJTNH 13703
2 99999                          +0007OIDR -0002AZKC -0003JJPK     01

# Worst residual: 0.27 km
# MJD 59491.000000 (2021 Oct  4  0:00)
Unk_Cislunar
1 99999U 00000    21276.99919926 +000I7RZD -003BTZJB -0020YF5FH 13708
2 99999                          +00086QD4 +0001119B -0001T2W4     05

# Worst residual: 0.37 km
# MJD 59492.000000 (2021 Oct  5  0:00)
Unk_Cislunar
1 99999U 00000    21277.99919926 +002CU8I2 -002R2RXC -0028NX4VH 13702
2 99999                          +000711V1 +0003LDHF -00000OKB     01

# Worst residual: 0.46 km
# MJD 59493.000000 (2021 Oct  6  0:00)
Unk_Cislunar
1 99999U 00000    21278.99919926 +003TFJHG -001OZH9V -0022GJGZH 13700
2 99999                          +00052UMY +00051P3W +0001DHUS     04

# Worst residual: 0.54 km
# MJD 59494.000000 (2021 Oct  7  0:00)
Unk_Cislunar
1 99999U 00000    21279.99919926 +004S8G7K -000EHYQN -001MA8VLH 13702
2 99999                          +0002ZJ51 +0005L4AA +0002ALXU     06

# Worst residual: 0.57 km
# MJD 59495.000000 (2021 Oct  8  0:00)
Unk_Cislunar
1 99999U 00000    21280.99919926 +0059IS35 +000XRHTK -000ZYEUCH 13707
2 99999                          +00011WXQ +0005I36L +0002TDBO     05

# Worst residual: 0.51 km
# MJD 59496.000000 (2021 Oct  9  0:00)
Unk_Cislunar
1 99999U 00000    21281.99919926 +005B6LQ3 +0027FKGN -000AHY18H 13708
2 99999                          -0000MF9L +00050KIJ +000317GL     03

